IRIDIUM 39              
1 25042U 97069D   25192.50223913  .00000358  00000+0  88435-4 0  9995
2 25042  86.3923 200.7105 0016214 220.1808 139.8198 14.49239224452488
IRIDIUM 38              
1 25043U 97069E   25192.52158705  .00000256  00000+0  77955-4 0  9996
2 25043  86.3949 222.9194 0003453  58.3732 301.7803 14.38131561449458
IRIDIUM 42              
1 25077U 97077A   25192.48801135  .00000250  00000+0  78794-4 0  9995
2 25077  86.3951 229.1325 0002819  78.5310 281.6203 14.36365632444680
IRIDIUM 44              
1 25078U 97077B   25192.51583486  .00000229  00000+0  66056-4 0  9990
2 25078  86.3960 210.9860 0001442  35.4340 324.6955 14.40255046447237
IRIDIUM 45              
1 25104U 97082A   25192.56896137  .00008958  00000+0  31741-3 0  9990
2 25104  86.3563  36.0440 0113326 239.6137 119.3868 15.22927922455752
IRIDIUM 24              
1 25105U 97082B   25192.59639630  .00000349  00000+0  10008-3 0  9996
2 25105  86.3882  69.9458 0011677   8.3975 351.7418 14.42116749446737
IRIDIUM 51              
1 25262U 98018A   25192.32831761  .00022570  00000+0  47947-3 0  9992
2 25262  86.3805  43.8653 0085375 155.8107 204.7194 15.40951931450748
IRIDIUM 57              
1 25273U 98019B   25192.56237359  .00000226  00000+0  71193-4 0  9999
2 25273  86.3988 135.0533 0002284  83.5023 276.6433 14.35905655428491
